{"type":"FeatureCollection","features":[{"type":"Feature","properties":{"district":"中正區","city":"臺北市","num":25},"geometry":{"type":"Point","coordinates":[121.5182346,25.0324135]}},{"type":"Feature","properties":{"district":"大同區","city":"臺北市","num":13},"geometry":{"type":"Point","coordinates":[121.5153661,25.0660564]}},{"type":"Feature","properties":{"district":"中山區","city":"臺北市","num":36},"geometry":{"type":"Point","coordinates":[121.5336277,25.0642508]}},{"type":"Feature","properties":{"district":"松山區","city":"臺北市","num":21},"geometry":{"type":"Point","coordinates":[121.5768018,25.0497252]}},{"type":"Feature","properties":{"district":"大安區","city":"臺北市","num":36},"geometry":{"type":"Point","coordinates":[121.5345625,25.0264562]}},{"type":"Feature","properties":{"district":"萬華區","city":"臺北市","num":22},"geometry":{"type":"Point","coordinates":[121.4998912,25.0348867]}},{"type":"Feature","properties":{"district":"信義區","city":"臺北市","num":14},"geometry":{"type":"Point","coordinates":[121.5677202,25.0331314]}},{"type":"Feature","properties":{"district":"士林區","city":"臺北市","num":25},"geometry":{"type":"Point","coordinates":[121.5198273,25.0928568]}},{"type":"Feature","properties":{"district":"北投區","city":"臺北市","num":19},"geometry":{"type":"Point","coordinates":[121.5026806,25.1323027]}},{"type":"Feature","properties":{"district":"內湖區","city":"臺北市","num":12},"geometry":{"type":"Point","coordinates":[121.5888703,25.0695059]}},{"type":"Feature","properties":{"district":"南港區","city":"臺北市","num":2},"geometry":{"type":"Point","coordinates":[121.6068286,25.0546698]}},{"type":"Feature","properties":{"district":"文山區","city":"臺北市","num":12},"geometry":{"type":"Point","coordinates":[121.5702959,24.9894668]}},{"type":"Feature","properties":{"district":"板橋區","city":"新北市","num":30},"geometry":{"type":"Point","coordinates":[121.4590205,25.0097766]}},{"type":"Feature","properties":{"district":"三重區","city":"新北市","num":9},"geometry":{"type":"Point","coordinates":[121.4885336,25.061008]}},{"type":"Feature","properties":{"district":"中和區","city":"新北市","num":12},"geometry":{"type":"Point","coordinates":[121.5008581,24.998512]}},{"type":"Feature","properties":{"district":"永和區","city":"新北市","num":5},"geometry":{"type":"Point","coordinates":[121.5202721,25.0091739]}},{"type":"Feature","properties":{"district":"新莊區","city":"新北市","num":16},"geometry":{"type":"Point","coordinates":[121.450502,25.0358987]}},{"type":"Feature","properties":{"district":"新店區","city":"新北市","num":13},"geometry":{"type":"Point","coordinates":[121.5416094,24.9673073]}},{"type":"Feature","properties":{"district":"土城區","city":"新北市","num":3},"geometry":{"type":"Point","coordinates":[121.4429286,24.9725985]}},{"type":"Feature","properties":{"district":"蘆洲區","city":"新北市","num":7},"geometry":{"type":"Point","coordinates":[121.4737323,25.0846694]}},{"type":"Feature","properties":{"district":"汐止區","city":"新北市","num":4},"geometry":{"type":"Point","coordinates":[121.6587593,25.0637969]}},{"type":"Feature","properties":{"district":"樹林區","city":"新北市","num":7},"geometry":{"type":"Point","coordinates":[121.424658,24.989851]}},{"type":"Feature","properties":{"district":"鶯歌區","city":"新北市","num":0},"geometry":{"type":"Point","coordinates":[121.3543715,24.956076]}},{"type":"Feature","properties":{"district":"三峽區","city":"新北市","num":3},"geometry":{"type":"Point","coordinates":[121.3688816,24.9341956]}},{"type":"Feature","properties":{"district":"淡水區","city":"新北市","num":0},"geometry":{"type":"Point","coordinates":[121.4404435,25.1694686]}},{"type":"Feature","properties":{"district":"瑞芳區","city":"新北市","num":0},"geometry":{"type":"Point","coordinates":[121.8098925,25.1088197]}},{"type":"Feature","properties":{"district":"五股區","city":"新北市","num":2},"geometry":{"type":"Point","coordinates":[121.438063,25.0830431]}},{"type":"Feature","properties":{"district":"泰山區","city":"新北市","num":0},"geometry":{"type":"Point","coordinates":[121.431372,25.0593538]}},{"type":"Feature","properties":{"district":"林口區","city":"新北市","num":0},"geometry":{"type":"Point","coordinates":[121.3888989,25.0770583]}},{"type":"Feature","properties":{"district":"八里區","city":"新北市","num":0},"geometry":{"type":"Point","coordinates":[121.4013922,25.1494122]}},{"type":"Feature","properties":{"district":"深坑區","city":"新北市","num":3},"geometry":{"type":"Point","coordinates":[121.6159209,25.0024909]}},{"type":"Feature","properties":{"district":"石碇區","city":"新北市","num":0},"geometry":{"type":"Point","coordinates":[121.657961,24.9915339]}},{"type":"Feature","properties":{"district":"坪林區","city":"新北市","num":0},"geometry":{"type":"Point","coordinates":[121.7116927,24.9361756]}},{"type":"Feature","properties":{"district":"三芝區","city":"新北市","num":0},"geometry":{"type":"Point","coordinates":[121.5010864,25.2578784]}},{"type":"Feature","properties":{"district":"石門區","city":"新北市","num":0},"geometry":{"type":"Point","coordinates":[121.5678418,25.2912319]}},{"type":"Feature","properties":{"district":"金山區","city":"新北市","num":2},"geometry":{"type":"Point","coordinates":[121.6364639,25.2222701]}},{"type":"Feature","properties":{"district":"萬里區","city":"新北市","num":0},"geometry":{"type":"Point","coordinates":[121.6894295,25.1780809]}},{"type":"Feature","properties":{"district":"平溪區","city":"新北市","num":0},"geometry":{"type":"Point","coordinates":[121.7381158,25.0266396]}},{"type":"Feature","properties":{"district":"雙溪區","city":"新北市","num":0},"geometry":{"type":"Point","coordinates":[121.8655773,25.033837]}},{"type":"Feature","properties":{"district":"貢寮區","city":"新北市","num":0},"geometry":{"type":"Point","coordinates":[121.9102641,25.0218924]}},{"type":"Feature","properties":{"district":"烏來區","city":"新北市","num":0},"geometry":{"type":"Point","coordinates":[121.548059,24.8717079]}}]}