{"type":"FeatureCollection","features":[{"type":"Feature","properties":{"district":"中正區","city":"臺北市","num":25},"geometry":{"type":"Point","coordinates":[121.5182346,25.0324135]}},{"type":"Feature","properties":{"district":"大同區","city":"臺北市","num":13},"geometry":{"type":"Point","coordinates":[121.5153661,25.0660564]}},{"type":"Feature","properties":{"district":"中山區","city":"臺北市","num":36},"geometry":{"type":"Point","coordinates":[121.5336277,25.0642508]}},{"type":"Feature","properties":{"district":"松山區","city":"臺北市","num":21},"geometry":{"type":"Point","coordinates":[121.5768018,25.0497252]}},{"type":"Feature","properties":{"district":"大安區","city":"臺北市","num":36},"geometry":{"type":"Point","coordinates":[121.5345625,25.0264562]}},{"type":"Feature","properties":{"district":"萬華區","city":"臺北市","num":22},"geometry":{"type":"Point","coordinates":[121.4998912,25.0348867]}},{"type":"Feature","properties":{"district":"信義區","city":"臺北市","num":14},"geometry":{"type":"Point","coordinates":[121.5677202,25.0331314]}},{"type":"Feature","properties":{"district":"士林區","city":"臺北市","num":25},"geometry":{"type":"Point","coordinates":[121.5198273,25.0928568]}},{"type":"Feature","properties":{"district":"北投區","city":"臺北市","num":19},"geometry":{"type":"Point","coordinates":[121.5026806,25.1323027]}},{"type":"Feature","properties":{"district":"內湖區","city":"臺北市","num":12},"geometry":{"type":"Point","coordinates":[121.5888703,25.0695059]}},{"type":"Feature","properties":{"district":"南港區","city":"臺北市","num":2},"geometry":{"type":"Point","coordinates":[121.6068286,25.0546698]}},{"type":"Feature","properties":{"district":"文山區","city":"臺北市","num":12},"geometry":{"type":"Point","coordinates":[121.5702959,24.9894668]}}]}