{"type":"FeatureCollection","crs":{"type":"name","properties":{"name":"urn:ogc:def:crs:OGC:1.3:CRS84"}},"features":[{"type":"Feature","properties":{"name":"亞尼克菓子工房股份有限公司內湖廠","city":"臺北市","district":"內湖區","address":"臺北市內湖區湖元里瑞湖街178巷15號2至4樓"},"geometry":{"type":"Point","coordinates":[121.575794388343,25.07079165665]}},{"type":"Feature","properties":{"name":"福氣食品有限公司","city":"臺北市","district":"內湖區","address":"臺北市內湖區西康里文湖街60巷32號"},"geometry":{"type":"Point","coordinates":[121.564388965054,25.085986203088]}},{"type":"Feature","properties":{"name":"冠冕盒餐食品股份有限公司","city":"臺北市","district":"內湖區","address":"臺北市內湖區西康里內湖路1段91巷38弄5、7號1樓"},"geometry":{"type":"Point","coordinates":[121.562920958531,25.085548248647]}},{"type":"Feature","properties":{"name":"雅山咖啡有限公司","city":"臺北市","district":"內湖區","address":"臺北市內湖區葫洲里安康路228巷21弄36號"},"geometry":{"type":"Point","coordinates":[121.602012981475,25.06161288594]}},{"type":"Feature","properties":{"name":"高雄空廚股份有限公司松山廠","city":"臺北市","district":"松山區","address":"臺北市松山區精忠里敦化北路405巷123弄9號1、2樓"},"geometry":{"type":"Point","coordinates":[121.556104627231,25.062946614373]}},{"type":"Feature","properties":{"name":"聖陶莎食品有限公司","city":"臺北市","district":"北投區","address":"臺北市北投區1德里立功街80巷5號"},"geometry":{"type":"Point","coordinates":[121.46989516051,25.125439863245]}},{"type":"Feature","properties":{"name":"太平洋食品有限公司","city":"臺北市","district":"南港區","address":"臺北市南港區東新里重陽路190巷12弄2號4樓"},"geometry":{"type":"Point","coordinates":[121.602603235097,25.056868519195]}},{"type":"Feature","properties":{"name":"第一餐盒股份有限公司","city":"臺北市","district":"南港區","address":"臺北市南港區東新里重陽路263巷8號"},"geometry":{"type":"Point","coordinates":[121.602982432397,25.05834574581]}},{"type":"Feature","properties":{"name":"幸味村餐飲有限公司","city":"臺北市","district":"南港區","address":"臺北市南港區玉成里南港路3段139之1號"},"geometry":{"type":"Point","coordinates":[121.585200643905,25.05249815297]}},{"type":"Feature","properties":{"name":"吉弟食品行","city":"臺北市","district":"大同區","address":"臺北市大同區永樂里西寧北路78之3號"},"geometry":{"type":"Point","coordinates":[121.508688284787,25.054429804466]}},{"type":"Feature","properties":{"name":"萬泰製冰有限公司","city":"臺北市","district":"萬華區","address":"臺北市萬華區隆昌街25號"},"geometry":{"type":"Point","coordinates":[121.505244579867,25.041283585616]}},{"type":"Feature","properties":{"name":"華生水資源生技股份有限公司","city":"臺北市","district":"內湖區","address":"臺北市內湖區湖元里行忠路62號地下1樓"},"geometry":{"type":"Point","coordinates":[121.580026243618,25.066255161104]}},{"type":"Feature","properties":{"name":"太子油飯股份有限公司士林廠","city":"臺北市","district":"士林區","address":"臺北市士林區前港里前港街23、25及29號"},"geometry":{"type":"Point","coordinates":[121.522070412302,25.084817723876]}},{"type":"Feature","properties":{"name":"生發號農產有限公司","city":"臺北市","district":"北投區","address":"臺北市北投區1德里立德路120巷18、20號4樓"},"geometry":{"type":"Point","coordinates":[121.472814996481,25.126497114602]}},{"type":"Feature","properties":{"name":"鮑參翅食品有限公司","city":"臺北市","district":"士林區","address":"臺北市士林區永倫里延平北路6段458號1、3樓"},"geometry":{"type":"Point","coordinates":[121.499249842716,25.092810539106]}},{"type":"Feature","properties":{"name":"良友國際食品股份有限公司","city":"臺北市","district":"內湖區","address":"臺北市內湖區湖元里行忠路48號2、3樓"},"geometry":{"type":"Point","coordinates":[121.578658484658,25.065651077342]}},{"type":"Feature","properties":{"name":"君城食品有限公司","city":"臺北市","district":"士林區","address":"臺北市士林區永倫里延平北路6段511巷22號1樓"},"geometry":{"type":"Point","coordinates":[121.499065524665,25.091757436791]}},{"type":"Feature","properties":{"name":"衛鮮食品股份有限公司","city":"臺北市","district":"內湖區","address":"臺北市內湖區湖元里民善街128號地下2樓"},"geometry":{"type":"Point","coordinates":[121.575027695659,25.061380120489]}},{"type":"Feature","properties":{"name":"榮彬食品有限公司","city":"臺北市","district":"士林區","address":"臺北市士林區福中里福港街110巷1弄2之1號"},"geometry":{"type":"Point","coordinates":[121.517619956991,25.088440969162]}},{"type":"Feature","properties":{"name":"永贏食品有限公司","city":"臺北市","district":"南港區","address":"臺北市南港區合成里忠孝東路6段263號1樓"},"geometry":{"type":"Point","coordinates":[121.589502152796,25.04972793397]}},{"type":"Feature","properties":{"name":"珍苑食品股份有限公司","city":"臺北市","district":"士林區","address":"臺北市士林區永倫里倫等街51號1樓及2樓"},"geometry":{"type":"Point","coordinates":[121.50143534015,25.093073521318]}},{"type":"Feature","properties":{"name":"宇貹農產產銷股份有限公司","city":"臺北市","district":"士林區","address":"臺北市士林區永倫里延平北路6段457號2樓、3樓"},"geometry":{"type":"Point","coordinates":[121.499221511883,25.09209258719]}},{"type":"Feature","properties":{"name":"昕翊食品有限公司","city":"臺北市","district":"南港區","address":"臺北市南港區玉成里南港路3段130巷3弄9號1樓"},"geometry":{"type":"Point","coordinates":[121.587650255108,25.053739387101]}},{"type":"Feature","properties":{"name":"盛記食品廠有限公司","city":"臺北市","district":"文山區","address":"臺北市文山區華興里辛亥路6段13號1樓"},"geometry":{"type":"Point","coordinates":[121.552280719183,24.990775368638]}},{"type":"Feature","properties":{"name":"純香食品行","city":"臺北市","district":"內湖區","address":"臺北市內湖區週美里南京東路6段330巷18弄15號"},"geometry":{"type":"Point","coordinates":[121.583844032876,25.057678630137]}},{"type":"Feature","properties":{"name":"禾翔食品行股份有限公司","city":"臺北市","district":"南港區","address":"臺北市南港區玉成里8德路4段768巷1弄4號1樓、6號1樓"},"geometry":{"type":"Point","coordinates":[121.580565786725,25.050151932542]}},{"type":"Feature","properties":{"name":"華生水資源生技股份有限公司內湖二廠","city":"臺北市","district":"內湖區","address":"臺北市內湖區湖元里行忠路62號4樓"},"geometry":{"type":"Point","coordinates":[121.580026243618,25.066255161104]}},{"type":"Feature","properties":{"name":"聯友糧食行","city":"臺北市","district":"南港區","address":"臺北市南港區中南里忠孝東路7段511號1、2樓"},"geometry":{"type":"Point","coordinates":[121.612074953323,25.05287730836]}},{"type":"Feature","properties":{"name":"正益食品廠有限公司","city":"臺北市","district":"內湖區","address":"臺北市內湖區週美里新明路321巷13號2樓、15號1、2樓"},"geometry":{"type":"Point","coordinates":[121.584862937026,25.056208276682]}},{"type":"Feature","properties":{"name":"三義醬油工廠","city":"臺北市","district":"萬華區","address":"臺北市萬華區榮德里萬大路424巷129、131號1樓"},"geometry":{"type":"Point","coordinates":[121.494642729636,25.02087314847]}},{"type":"Feature","properties":{"name":"一九九七食品有限公司","city":"臺北市","district":"南港區","address":"臺北市南港區重陽里重陽路263巷1號地下層"},"geometry":{"type":"Point","coordinates":[121.603377555312,25.057954730027]}},{"type":"Feature","properties":{"name":"全祥茶莊股份有限公司精製廠","city":"臺北市","district":"大同區","address":"臺北市大同區永樂里貴德街49號"},"geometry":{"type":"Point","coordinates":[121.508368599,25.055051699772]}},{"type":"Feature","properties":{"name":"林華泰茶行有限公司","city":"臺北市","district":"大同區","address":"臺北市大同區民權里重慶北路2段193號1樓"},"geometry":{"type":"Point","coordinates":[121.513717091416,25.060141400928]}},{"type":"Feature","properties":{"name":"亞尼克菓子工房股份有限公司內湖二廠","city":"臺北市","district":"內湖區","address":"臺北市內湖區湖元里瑞湖街178巷15號5樓"},"geometry":{"type":"Point","coordinates":[121.575794388343,25.07079165665]}},{"type":"Feature","properties":{"name":"年盛食品工廠有限公司","city":"臺北市","district":"萬華區","address":"臺北市萬華區寶興街210巷19號"},"geometry":{"type":"Point","coordinates":[121.495041959684,25.022618595987]}},{"type":"Feature","properties":{"name":"臺灣菸酒股份有限公司台北啤酒工場","city":"臺北市","district":"中山區","address":"臺北市中山區朱園里8德路2段85號"},"geometry":{"type":"Point","coordinates":[121.535691591695,25.045868696201]}},{"type":"Feature","properties":{"name":"三水冰果店","city":"臺北市","district":"萬華區","address":"臺北市萬華區青山里廣州街223巷11號"},"geometry":{"type":"Point","coordinates":[121.498972150264,25.037088065891]}},{"type":"Feature","properties":{"name":"甲上燒餅有限公司","city":"臺北市","district":"內湖區","address":"臺北市內湖區週美里新明路174巷16號"},"geometry":{"type":"Point","coordinates":[121.585083716356,25.058080542394]}},{"type":"Feature","properties":{"name":"漢翊食品有限公司","city":"臺北市","district":"南港區","address":"臺北市南港區合成里忠孝東路6段85號2樓"},"geometry":{"type":"Point","coordinates":[121.584662441902,25.048175605502]}},{"type":"Feature","properties":{"name":"興紀餐飲有限公司","city":"臺北市","district":"內湖區","address":"臺北市內湖區西安里內湖路1段91巷18號1、2樓及20號1樓"},"geometry":{"type":"Point","coordinates":[121.561785727567,25.085125254337]}},{"type":"Feature","properties":{"name":"君城食品有限公司二廠","city":"臺北市","district":"士林區","address":"臺北市士林區永倫里延平北路6段511巷22號4樓"},"geometry":{"type":"Point","coordinates":[121.499065524665,25.091757436791]}},{"type":"Feature","properties":{"name":"鉅登團膳食品有限公司","city":"臺北市","district":"南港區","address":"臺北市南港區西新里南港路3段80巷32號2樓、地下"},"geometry":{"type":"Point","coordinates":[121.590634547915,25.055101572096]}},{"type":"Feature","properties":{"name":"美福餐飲股份有限公司","city":"臺北市","district":"內湖區","address":"臺北市內湖區湖元里民善街128號3樓"},"geometry":{"type":"Point","coordinates":[121.575027695659,25.061380120489]}},{"type":"Feature","properties":{"name":"康鮮食品股份有限公司","city":"臺北市","district":"南港區","address":"臺北市南港區重陽里重陽路263巷3號4樓"},"geometry":{"type":"Point","coordinates":[121.603275715189,25.058163942331]}},{"type":"Feature","properties":{"name":"恩沛行食品有限公司","city":"臺北市","district":"內湖區","address":"臺北市內湖區蘆洲里安康路228巷21弄32號"},"geometry":{"type":"Point","coordinates":[121.602141727508,25.061632331955]}},{"type":"Feature","properties":{"name":"永祥西點麵包店","city":"臺北市","district":"內湖區","address":"臺北市內湖區西康里內湖路1段77號1樓"},"geometry":{"type":"Point","coordinates":[121.560625993442,25.08483302085]}},{"type":"Feature","properties":{"name":"麵屋千雲股份有限公司","city":"臺北市","district":"內湖區","address":"臺北市內湖區湖元里行愛路141巷36號4樓及38號4樓"},"geometry":{"type":"Point","coordinates":[121.581365420288,25.064967575048]}},{"type":"Feature","properties":{"name":"中原食品工業開發股份有限公司","city":"臺北市","district":"萬華區","address":"臺北市萬華區糖廍里艋舺大道275巷13、15號1樓"},"geometry":{"type":"Point","coordinates":[121.497629956108,25.033656389003]}},{"type":"Feature","properties":{"name":"世豐製麵廠","city":"臺北市","district":"大同區","address":"臺北市大同區重慶里敦煌路24巷12弄3號1樓"},"geometry":{"type":"Point","coordinates":[121.519534802772,25.075039730908]}},{"type":"Feature","properties":{"name":"天仁餐盒有限公司","city":"臺北市","district":"內湖區","address":"臺北市內湖區週美里新明路321巷10弄8、10、12號1樓"},"geometry":{"type":"Point","coordinates":[121.585024875396,25.056638352134]}},{"type":"Feature","properties":{"name":"焦唐楓餐飲文化股份有限公司","city":"臺北市","district":"內湖區","address":"臺北市內湖區湖元里民權東路6段15巷30號1、2、3樓"},"geometry":{"type":"Point","coordinates":[121.577959853028,25.06834954725]}},{"type":"Feature","properties":{"name":"世慶食品有限公司內湖廠","city":"臺北市","district":"內湖區","address":"臺北市內湖區蘆洲里安康路172號"},"geometry":{"type":"Point","coordinates":[121.601483915747,25.06303688747]}},{"type":"Feature","properties":{"name":"宮保王食品有限公司","city":"臺北市","district":"南港區","address":"臺北市南港區玉成里南港路3段149巷49弄12、14號"},"geometry":{"type":"Point","coordinates":[121.585287815698,25.052175114421]}},{"type":"Feature","properties":{"name":"啡卡咖啡股份有限公司","city":"臺北市","district":"南港區","address":"臺北市南港區東新里重陽路186號"},"geometry":{"type":"Point","coordinates":[121.602240047232,25.05745500096]}},{"type":"Feature","properties":{"name":"禾藝廚房股份有限公司","city":"臺北市","district":"內湖區","address":"臺北市內湖區湖元里陽光街365巷37、39號"},"geometry":{"type":"Point","coordinates":[121.577334898327,25.071896098122]}},{"type":"Feature","properties":{"name":"德誠食品有限公司","city":"臺北市","district":"南港區","address":"臺北市南港區西新里臺北市南港區成功路1段38號1樓"},"geometry":{"type":"Point","coordinates":[121.592739830535,25.055837628923]}},{"type":"Feature","properties":{"name":"養心餐飲股份有限公司","city":"臺北市","district":"南港區","address":"臺北市南港區西新里松河街410號"},"geometry":{"type":"Point","coordinates":[121.589544062312,25.05547775191]}},{"type":"Feature","properties":{"name":"老竹子三發點心總匯商行","city":"臺北市","district":"大同區","address":"臺北市大同區鄰江里環河北路2段213巷1號"},"geometry":{"type":"Point","coordinates":[121.50969914231,25.0697494089]}},{"type":"Feature","properties":{"name":"第一餐盒股份有限公司2廠","city":"臺北市","district":"南港區","address":"臺北市南港區重陽里重陽路263巷8號2樓"},"geometry":{"type":"Point","coordinates":[121.602982432397,25.05834574581]}},{"type":"Feature","properties":{"name":"君城食品有限公司三廠","city":"臺北市","district":"士林區","address":"臺北市士林區永倫里延平北路6段511巷22號2樓"},"geometry":{"type":"Point","coordinates":[121.499065524665,25.091757436791]}},{"type":"Feature","properties":{"name":"德佳食品工業有限公司","city":"臺北市","district":"北投區","address":"臺北市北投區8仙里中央南路2段133號-1樓"},"geometry":{"type":"Point","coordinates":[121.500403611688,25.121008937769]}},{"type":"Feature","properties":{"name":"糖話國際股份有限公司保健糖果廠","city":"臺北市","district":"中山區","address":"臺北市中山區集英里中山北路3段22之1號5樓-新設工大樓"},"geometry":{"type":"Point","coordinates":[121.521729687937,25.064468809899]}},{"type":"Feature","properties":{"name":"龍泰西點麵包店","city":"臺北市","district":"中正區","address":"臺北市中正區文祥里杭州南路1段145之2號2樓"},"geometry":{"type":"Point","coordinates":[121.524660336564,25.036099252773]}},{"type":"Feature","properties":{"name":"欣香國際食品有限公司","city":"臺北市","district":"文山區","address":"臺北市文山區興隆路2段99號"},"geometry":{"type":"Point","coordinates":[121.547745699429,24.999837282255]}},{"type":"Feature","properties":{"name":"盛記食品廠有限公司興富廠","city":"臺北市","district":"文山區","address":"臺北市文山區華興里辛亥路6段13號"},"geometry":{"type":"Point","coordinates":[121.552280719183,24.990775368638]}},{"type":"Feature","properties":{"name":"雅培米堤食品有限公司","city":"臺北市","district":"中山區","address":"臺北市中山區中庄里民生東路2段95號2樓、97號2樓"},"geometry":{"type":"Point","coordinates":[121.531084227157,25.058109627598]}},{"type":"Feature","properties":{"name":"昱陸麵店","city":"臺北市","district":"士林區","address":"臺北市士林區承德里承德路4段58巷24號"},"geometry":{"type":"Point","coordinates":[121.521832533889,25.082024077457]}},{"type":"Feature","properties":{"name":"唭哩岸麵線","city":"臺北市","district":"北投區","address":"臺北市北投區8仙里立農街1段187巷16號1樓"},"geometry":{"type":"Point","coordinates":[121.504819449738,25.120742854253]}}]}